[{"norad_id":"62754","company":"STARLINK","tle_line2":"2 62754  42.9969 268.2134 0000852 285.0196  75.0562 15.28435291 21184","launch_date":"2025-01-21","type":"LEO","tle_line1":"1 62754U 25014V   25158.60810906  .00020965  00000+0  74943-3 0  9998","satellite_name":"STARLINK-32740"},{"norad_id":"62755","company":"STARLINK","tle_line2":"2 62755  42.9969 268.1212 0000795 260.8006  99.2756 15.27592481 21185","launch_date":"2025-01-21","type":"LEO","tle_line1":"1 62755U 25014W   25158.59680696  .00015753  00000+0  58054-3 0  9992","satellite_name":"STARLINK-32745"},{"norad_id":"62758","company":"STARLINK","tle_line2":"2 62758  53.1568 163.1166 0001262  92.2980 267.8165 15.30205530 22208","launch_date":"2025-01-21","type":"LEO","tle_line1":"1 62758U 25015A   25158.03790740  .00012483  00000+0  43279-3 0  9997","satellite_name":"STARLINK-33596"},{"norad_id":"62759","company":"STARLINK","tle_line2":"2 62759  53.1563 161.2870 0000778  78.1787 281.9301 15.30211584 21578","launch_date":"2025-01-21","type":"LEO","tle_line1":"1 62759U 25015B   25158.42768337  .00024588  00000+0  83925-3 0  9999","satellite_name":"STARLINK-33589"},{"norad_id":"62760","company":"STARLINK","tle_line2":"2 62760  53.1571 161.7581 0001531  81.9243 278.1931 15.30202431 21556","launch_date":"2025-01-21","type":"LEO","tle_line1":"1 62760U 25015C   25158.28018898  .00044926  00000+0  15197-2 0  9998","satellite_name":"STARLINK-33575"},{"norad_id":"62761","company":"STARLINK","tle_line2":"2 62761  53.1587 161.0942 0000653 100.6379 259.4696 15.30195800 22339","launch_date":"2025-01-21","type":"LEO","tle_line1":"1 62761U 25015D   25158.39708499  .00027429  00000+0  93492-3 0  9998","satellite_name":"STARLINK-33584"},{"norad_id":"62762","company":"STARLINK","tle_line2":"2 62762  53.1566 160.6566 0001300  89.7841 270.3309 15.30196878 22345","launch_date":"2025-01-21","type":"LEO","tle_line1":"1 62762U 25015E   25158.44234448  .00003465  00000+0  12908-3 0  9990","satellite_name":"STARLINK-33577"},{"norad_id":"62763","company":"STARLINK","tle_line2":"2 62763  53.1572 163.1377 0001316 100.9617 259.1532 15.30205245 22279","launch_date":"2025-01-21","type":"LEO","tle_line1":"1 62763U 25015F   25158.04107114  .00015924  00000+0  54853-3 0  9994","satellite_name":"STARLINK-33597"},{"norad_id":"62764","company":"STARLINK","tle_line2":"2 62764  53.1565 162.4531 0001732 105.8277 254.2915 15.30207045 22286","launch_date":"2025-01-21","type":"LEO","tle_line1":"1 62764U 25015G   25158.04518076  .00009244  00000+0  32378-3 0  9994","satellite_name":"STARLINK-33579"},{"norad_id":"62765","company":"STARLINK","tle_line2":"2 62765  53.1578 161.1928 0001151 105.8618 254.2510 15.30200456 22203","launch_date":"2025-01-21","type":"LEO","tle_line1":"1 62765U 25015H   25158.41398268  .00016512  00000+0  56836-3 0  9996","satellite_name":"STARLINK-33592"},{"norad_id":"62766","company":"STARLINK","tle_line2":"2 62766  53.1586 161.0383 0000968  98.0643 262.0468 15.30203612 22333","launch_date":"2025-01-21","type":"LEO","tle_line1":"1 62766U 25015J   25158.38863724  .00015624  00000+0  53847-3 0  9999","satellite_name":"STARLINK-33595"},{"norad_id":"62767","company":"STARLINK","tle_line2":"2 62767  53.1586 161.1367 0001138  92.1481 267.9650 15.30208334 22278","launch_date":"2025-01-21","type":"LEO","tle_line1":"1 62767U 25015K   25158.40446695  .00019482  00000+0  66801-3 0  9997","satellite_name":"STARLINK-33572"},{"norad_id":"62768","company":"STARLINK","tle_line2":"2 62768  53.1583 160.4901 0001290  79.3862 280.7284 15.30211479 22350","launch_date":"2025-01-21","type":"LEO","tle_line1":"1 62768U 25015L   25158.52876500  .00013039  00000+0  45143-3 0  9991","satellite_name":"STARLINK-33601"},{"norad_id":"62769","company":"STARLINK","tle_line2":"2 62769  53.1577 160.9927 0001010  95.8257 264.2859 15.30209007 22335","launch_date":"2025-01-21","type":"LEO","tle_line1":"1 62769U 25015M   25158.38125029  .00019853  00000+0  68043-3 0  9993","satellite_name":"STARLINK-33569"},{"norad_id":"62770","company":"STARLINK","tle_line2":"2 62770  53.1563 162.4642 0001582  94.2393 265.8788 15.30201817 22284","launch_date":"2025-01-21","type":"LEO","tle_line1":"1 62770U 25015N   25158.04729227  .00012265  00000+0  42551-3 0  9994","satellite_name":"STARLINK-33594"},{"norad_id":"62771","company":"STARLINK","tle_line2":"2 62771  53.1579 164.0350 0001276  89.3629 270.7518 15.30203876 22231","launch_date":"2025-01-21","type":"LEO","tle_line1":"1 62771U 25015P   25157.73021385  .00010075  00000+0  35179-3 0  9995","satellite_name":"STARLINK-33598"},{"norad_id":"62772","company":"STARLINK","tle_line2":"2 62772  53.1566 161.2541 0001189  85.5785 274.5352 15.30217168 22331","launch_date":"2025-01-21","type":"LEO","tle_line1":"1 62772U 25015Q   25158.42346244  .00023210  00000+0  79291-3 0  9995","satellite_name":"STARLINK-33600"},{"norad_id":"62773","company":"STARLINK","tle_line2":"2 62773  53.1577 162.8948 0001394  89.9651 270.1510 15.30204518 22276","launch_date":"2025-01-21","type":"LEO","tle_line1":"1 62773U 25015R   25158.00308093  .00013701  00000+0  47379-3 0  9996","satellite_name":"STARLINK-33567"},{"norad_id":"62774","company":"STARLINK","tle_line2":"2 62774  53.1583 161.0303 0000879 108.1256 251.9841 15.30210194 22059","launch_date":"2025-01-21","type":"LEO","tle_line1":"1 62774U 25015S   25158.38758026  .00016687  00000+0  57409-3 0  9994","satellite_name":"STARLINK-33574"},{"norad_id":"62775","company":"STARLINK","tle_line2":"2 62775  53.1579 161.1901 0000808  73.3175 286.7914 15.30216875 22278","launch_date":"2025-01-21","type":"LEO","tle_line1":"1 62775U 25015T   25158.41290858  .00020267  00000+0  69416-3 0  9993","satellite_name":"STARLINK-33576"},{"norad_id":"62776","company":"STARLINK","tle_line2":"2 62776  53.1576 161.0227 0001296  78.5979 281.5167 15.30204304 22274","launch_date":"2025-01-21","type":"LEO","tle_line1":"1 62776U 25015U   25158.38652702  .00011295  00000+0  39286-3 0  9993","satellite_name":"STARLINK-33570"},{"norad_id":"62777","company":"STARLINK","tle_line2":"2 62777  53.1577 161.7758 0001262  88.2881 271.8265 15.30186967 22315","launch_date":"2025-01-21","type":"LEO","tle_line1":"1 62777U 25015V   25158.27909947  .00006027  00000+0  21552-3 0  9992","satellite_name":"STARLINK-33591"},{"norad_id":"62778","company":"STARLINK","tle_line2":"2 62778  53.1568 160.9807 0001136  98.4936 261.6194 15.30209482 22334","launch_date":"2025-01-21","type":"LEO","tle_line1":"1 62778U 25015W   25158.38019403  .00017470  00000+0  60039-3 0  9991","satellite_name":"STARLINK-33573"},{"norad_id":"62779","company":"STARLINK","tle_line2":"2 62779  53.1586 162.9499 0001369  94.0807 266.0350 15.30203317 22111","launch_date":"2025-01-21","type":"LEO","tle_line1":"1 62779U 25015X   25158.01152644  .00015513  00000+0  53474-3 0  9998","satellite_name":"STARLINK-33568"},{"norad_id":"62780","company":"STARLINK","tle_line2":"2 62780  53.1583 165.8607 0001349  84.7047 275.4108 15.30194020 22163","launch_date":"2025-01-21","type":"LEO","tle_line1":"1 62780U 25015Y   25157.33938054  .00003522  00000+0  13100-3 0  9990","satellite_name":"STARLINK-33593"},{"norad_id":"62781","company":"STARLINK","tle_line2":"2 62781  53.1579 158.9475 0000412  83.3567 276.7481 15.30220331 22362","launch_date":"2025-01-21","type":"LEO","tle_line1":"1 62781U 25015Z   25158.40498206  .00027913  00000+0  95043-3 0  9996","satellite_name":"STARLINK-33588"},{"norad_id":"62782","company":"STARLINK","tle_line2":"2 62782  53.1561 163.9571 0001295  82.2211 277.8937 15.30203884 21957","launch_date":"2025-01-21","type":"LEO","tle_line1":"1 62782U 25015AA  25157.71755047  .00014049  00000+0  48549-3 0  9994","satellite_name":"STARLINK-33585"},{"norad_id":"62783","company":"STARLINK","tle_line2":"2 62783  53.1585 161.0695 0001367  85.6288 274.4869 15.30204769 22266","launch_date":"2025-01-21","type":"LEO","tle_line1":"1 62783U 25015AB  25158.39391523  .00017440  00000+0  59948-3 0  9998","satellite_name":"STARLINK-33582"},{"norad_id":"62784","company":"STARLINK","tle_line2":"2 62784  53.1569 161.2586 0000975  78.3253 281.7857 15.30196846 22337","launch_date":"2025-01-21","type":"LEO","tle_line1":"1 62784U 25015AC  25158.42450767  .00017442  00000+0  59970-3 0  9996","satellite_name":"STARLINK-33581"},{"norad_id":"62806","company":"STARLINK","tle_line2":"2 62806  53.1587 147.3750 0001341  59.7216 147.2250 15.31181790  5900","launch_date":"2025-01-24","type":"LEO","tle_line1":"1 62806U 25018A   25158.58335648 -.00253764  00000+0 -85837-2 0  9992","satellite_name":"STARLINK-32883"},{"norad_id":"62807","company":"STARLINK","tle_line2":"2 62807  53.1586 148.4433 0001127  85.9146 274.1984 15.30208478 21022","launch_date":"2025-01-24","type":"LEO","tle_line1":"1 62807U 25018B   25158.34805386  .00014052  00000+0  48555-3 0  9998","satellite_name":"STARLINK-32886"},{"norad_id":"62808","company":"STARLINK","tle_line2":"2 62808  53.1586 148.4772 0001139  90.8615 269.2516 15.30213520 21017","launch_date":"2025-01-24","type":"LEO","tle_line1":"1 62808U 25018C   25158.35332874  .00019165  00000+0  65725-3 0  9995","satellite_name":"STARLINK-32848"},{"norad_id":"62809","company":"STARLINK","tle_line2":"2 62809  53.1577 147.3298 0001820  92.5935 136.0775 15.30207910  5757","launch_date":"2025-01-24","type":"LEO","tle_line1":"1 62809U 25018D   25158.58335648 -.00037545  00000+0 -12615-2 0  9996","satellite_name":"STARLINK-32787"},{"norad_id":"62810","company":"STARLINK","tle_line2":"2 62810  53.1583 147.3971 0001396  67.1397 128.1785 15.31043643  5870","launch_date":"2025-01-24","type":"LEO","tle_line1":"1 62810U 25018E   25158.58335648 -.00028533  00000+0 -93010-3 0  9994","satellite_name":"STARLINK-32851"},{"norad_id":"62811","company":"STARLINK","tle_line2":"2 62811  53.1575 148.6541 0000570  92.4696 267.6370 15.30202327 21002","launch_date":"2025-01-24","type":"LEO","tle_line1":"1 62811U 25018F   25158.26796346  .00013330  00000+0  46134-3 0  9998","satellite_name":"STARLINK-32847"}]